LMRST-SAT               
1 40971U 15058H   26068.72417700  .00004653  00000+0  42420-3 0  9992
2 40971  64.7755 224.0879 0131013  97.8444 263.7563 14.89988841 98733
IRIDE FM4               
1 66698U 25276AJ  26068.76071646  .00008403  00000+0  40963-3 0  9995
2 66698  97.4251 143.9634 0003872  14.8227 345.3120 15.18565498 15320
